[{"OBJECT_ID":"1958-002B","OBJECT_NAME":"VANGUARD 1","NORAD_CAT_ID":"5","OBJECT_TYPE":"PAYLOAD","PERIOD":"132.751","INCLINATION":"34.2503","APOGEE":"3835.266","PERIGEE":"648.985","ECCENTRICITY":"0.1848135","MEAN_MOTION":"10.84731161","TLE_LINE1":"1 00005U 58002B   16238.29297367 -.00000068  00000-0 -10544-3 0  9998","TLE_LINE2":"2 00005  34.2503 196.2255 1848135 208.5544 140.0257 10.84731161 54158","LAUNCH_DATE":"1958-03-17","LAUNCH_SITE":"AIR FORCE EASTERN TEST RANGE","OWNER":"UNITED STATES OF AMERICA","ORBIT_TYPE":"Unclassified","OPERATIONAL_STATUS":"Unknown"},{"OBJECT_ID":"1959-001A","OBJECT_NAME":"VANGUARD 2","NORAD_CAT_ID":"11","OBJECT_TYPE":"PAYLOAD","PERIOD":"121.487","INCLINATION":"32.8725","APOGEE":"2940.509","PERIGEE":"554.137","ECCENTRICITY":"0.1468454","MEAN_MOTION":"11.85307269","TLE_LINE1":"1    11U 59001A   16238.87762969 +.00000360 +00000-0 +18250-3 0  9999","TLE_LINE2":"2    11 032.8725 238.6809 1468454 317.6718 031.9228 11.85307269109784","LAUNCH_DATE":"1959-02-17","LAUNCH_SITE":"AIR FORCE EASTERN TEST RANGE","OWNER":"UNITED STATES OF AMERICA","ORBIT_TYPE":"Low Earth Orbit","OPERATIONAL_STATUS":"Unknown"},{"OBJECT_ID":"1959-001B","OBJECT_NAME":"VANGUARD R/B","NORAD_CAT_ID":"12","OBJECT_TYPE":"ROCKET BODY","PERIOD":"125.875","INCLINATION":"32.9042","APOGEE":"3327.752","PERIGEE":"555.843","ECCENTRICITY":"0.1665824","MEAN_MOTION":"11.43992025","TLE_LINE1":"1 00012U 59001B   16239.15172182  .00000126  00000-0  64531-4 0  9998","TLE_LINE2":"2 00012  32.9042 177.9531 1665824 322.3872  27.0867 11.43992025363151","LAUNCH_DATE":"1959-02-17","LAUNCH_SITE":"AIR FORCE EASTERN TEST RANGE","OWNER":"UNITED STATES OF AMERICA","ORBIT_TYPE":"Low Earth Orbit","OPERATIONAL_STATUS":"N/A, derelict rocket body"},{"OBJECT_ID":"1958-002A","OBJECT_NAME":"VANGUARD R/B","NORAD_CAT_ID":"16","OBJECT_TYPE":"ROCKET BODY","PERIOD":"137.315","INCLINATION":"34.2589","APOGEE":"4225.003","PERIGEE":"652.112","ECCENTRICITY":"0.2026208","MEAN_MOTION":"10.4868288","TLE_LINE1":"1    16U 58002A   16238.90133476 -.00000016 +00000-0 -85225-5 0  9991","TLE_LINE2":"2    16 034.2589 212.5038 2026208 130.6378 248.8864 10.48682880312741","LAUNCH_DATE":"1958-03-17","LAUNCH_SITE":"AIR FORCE EASTERN TEST RANGE","OWNER":"UNITED STATES OF AMERICA","ORBIT_TYPE":"Unclassified","OPERATIONAL_STATUS":"N/A, derelict rocket body"},{"OBJECT_ID":"1959-007A","OBJECT_NAME":"VANGUARD 3","NORAD_CAT_ID":"20","OBJECT_TYPE":"PAYLOAD","PERIOD":"124.649","INCLINATION":"33.3422","APOGEE":"3265.641","PERIGEE":"509.736","ECCENTRICITY":"0.1667048","MEAN_MOTION":"11.55243413","TLE_LINE1":"1 00020U 59007A   16238.87343153  .00000419  00000-0  18081-3 0  9992","TLE_LINE2":"2 00020  33.3422  98.3225 1667048  86.7277 292.1782 11.55243413 69633","LAUNCH_DATE":"1959-09-18","LAUNCH_SITE":"AIR FORCE EASTERN TEST RANGE","OWNER":"UNITED STATES OF AMERICA","ORBIT_TYPE":"Low Earth Orbit","OPERATIONAL_STATUS":"Unknown"},{"OBJECT_ID":"1959-009A","OBJECT_NAME":"EXPLORER 7","NORAD_CAT_ID":"22","OBJECT_TYPE":"PAYLOAD","PERIOD":"96.407","INCLINATION":"50.2848","APOGEE":"686.488","PERIGEE":"486.555","ECCENTRICITY":"0.0143534","MEAN_MOTION":"14.93664878","TLE_LINE1":"1 00022U 59009A   16239.34719180  .00000573  00000-0  67445-4 0  9996","TLE_LINE2":"2 00022  50.2848 143.0484 0143534 348.8659  10.9122 14.93664878 17278","LAUNCH_DATE":"1959-10-13","LAUNCH_SITE":"AIR FORCE EASTERN TEST RANGE","OWNER":"UNITED STATES OF AMERICA","ORBIT_TYPE":"Low Earth Orbit","OPERATIONAL_STATUS":"Unknown"},{"OBJECT_ID":"1960-002B","OBJECT_NAME":"TIROS 1","NORAD_CAT_ID":"29","OBJECT_TYPE":"PAYLOAD","PERIOD":"97.687","INCLINATION":"48.3805","APOGEE":"664.797","PERIGEE":"631.310","ECCENTRICITY":"0.002383","MEAN_MOTION":"14.74086771","TLE_LINE1":"1 00029U 60002B   16239.48448022 -.00000093  00000-0  17205-4 0  9994","TLE_LINE2":"2 00029  48.3805  31.8670 0023830  42.0532 318.2203 14.74086771 13422","LAUNCH_DATE":"1960-04-01","LAUNCH_SITE":"AIR FORCE EASTERN TEST RANGE","OWNER":"UNITED STATES OF AMERICA","ORBIT_TYPE":"Low Earth Orbit","OPERATIONAL_STATUS":"Nonoperational"},{"OBJECT_ID":"1989-042B","OBJECT_NAME":"SL-8 R/B","NORAD_CAT_ID":"20046","OBJECT_TYPE":"ROCKET BODY","PERIOD":"104.494","INCLINATION":"82.9404","APOGEE":"1001.609","PERIGEE":"939.902","ECCENTRICITY":"0.0041984","MEAN_MOTION":"13.78066219","TLE_LINE1":"1 20046U 89042B   16238.87455466 +.00000020 +00000-0 +47398-5 0  9998","TLE_LINE2":"2 20046 082.9404 163.2738 0041984 174.6988 246.1574 13.78066219368379","LAUNCH_DATE":"1989-06-07","LAUNCH_SITE":"PLESETSK MISSILE AND SPACE COMPLEX","OWNER":"COMMONWEALTH OF INDEPENDENT STATES","ORBIT_TYPE":"Low Earth Orbit","OPERATIONAL_STATUS":"N/A, derelict rocket body"},{"OBJECT_ID":"1965-027BC","OBJECT_NAME":"OPS 4682 DEB","NORAD_CAT_ID":"20048","OBJECT_TYPE":"DEBRIS","PERIOD":"110.821","INCLINATION":"90.2715","APOGEE":"1284.386","PERIGEE":"1244.560","ECCENTRICITY":"0.0026055","MEAN_MOTION":"12.99392407","TLE_LINE1":"1 20048U 65027BC  16234.52963244 -.00000117  00000-0 -41787-3 0  9996","TLE_LINE2":"2 20048  90.2715 258.9238 0026055  13.9062 140.4159 12.99392407361332","LAUNCH_DATE":"1965-04-03","LAUNCH_SITE":"AIR FORCE WESTERN TEST RANGE","OWNER":"UNITED STATES OF AMERICA","ORBIT_TYPE":"Low Earth Orbit","OPERATIONAL_STATUS":"N/A, space debris"},{"OBJECT_ID":"1976-077FN","OBJECT_NAME":"DELTA 1 DEB","NORAD_CAT_ID":"20051","OBJECT_TYPE":"DEBRIS","PERIOD":"118.581","INCLINATION":"102.2529","APOGEE":"1739.670","PERIGEE":"1494.764","ECCENTRICITY":"0.0153155","MEAN_MOTION":"12.14356886","TLE_LINE1":"1 20051U 76077FN  16238.51976875 -.00000037  00000-0  10000-3 0  9998","TLE_LINE2":"2 20051 102.2529 263.8494 0153155 163.0293 197.6472 12.14356886163269","LAUNCH_DATE":"1976-07-29","LAUNCH_SITE":"AIR FORCE WESTERN TEST RANGE","OWNER":"UNITED STATES OF AMERICA","ORBIT_TYPE":"Low Earth Orbit","OPERATIONAL_STATUS":"N/A, space debris"},{"OBJECT_ID":"1989-044A","OBJECT_NAME":"NAVSTAR 14 (USA 38)","NORAD_CAT_ID":"20061","OBJECT_TYPE":"PAYLOAD","PERIOD":"762.485","INCLINATION":"55.5056","APOGEE":"21332.890","PERIGEE":"21204.840","ECCENTRICITY":"0.0023158","MEAN_MOTION":"1.88855979","TLE_LINE1":"1 20061U 89044A   16239.43025307 -.00000088  00000-0  00000+0 0  9995","TLE_LINE2":"2 20061  55.5056   7.8340 0023158 129.5955 239.5115  1.88855979194161","LAUNCH_DATE":"1989-06-10","LAUNCH_SITE":"AIR FORCE EASTERN TEST RANGE","OWNER":"UNITED STATES OF AMERICA","ORBIT_TYPE":"Middle Earth Orbit","OPERATIONAL_STATUS":"Nonoperational"},{"OBJECT_ID":"1989-039G","OBJECT_NAME":"SL-12 R/B(AUX MOTOR)","NORAD_CAT_ID":"20081","OBJECT_TYPE":"ROCKET BODY","PERIOD":"328.575","INCLINATION":"65.1917","APOGEE":"18120.594","PERIGEE":"669.310","ECCENTRICITY":"0.5531981","MEAN_MOTION":"4.38255819","TLE_LINE1":"1 20081U 89039G   16239.36307313  .00000053  00000-0  28555-3 0  9993","TLE_LINE2":"2 20081  65.1917 303.3140 5531981 271.9450 117.5979  4.38255819427159","LAUNCH_DATE":"1989-05-31","LAUNCH_SITE":"TYURATAM MISSILE AND SPACE COMPLEX","OWNER":"COMMONWEALTH OF INDEPENDENT STATES","ORBIT_TYPE":"Highly Elliptical Orbit","OPERATIONAL_STATUS":"N/A, derelict rocket body"},{"OBJECT_ID":"1989-039H","OBJECT_NAME":"SL-12 R/B(AUX MOTOR)","NORAD_CAT_ID":"20082","OBJECT_TYPE":"ROCKET BODY","PERIOD":"330.177","INCLINATION":"65.1217","APOGEE":"18278.453","PERIGEE":"613.933","ECCENTRICITY":"0.5581444","MEAN_MOTION":"4.36128859","TLE_LINE1":"1 20082U 89039H   16238.64723424  .00000057  00000-0  29331-3 0  9996","TLE_LINE2":"2 20082  65.1217 322.2768 5581444 249.3982  44.3408  4.36128859426443","LAUNCH_DATE":"1989-05-31","LAUNCH_SITE":"TYURATAM MISSILE AND SPACE COMPLEX","OWNER":"COMMONWEALTH OF INDEPENDENT STATES","ORBIT_TYPE":"Highly Elliptical Orbit","OPERATIONAL_STATUS":"N/A, derelict rocket body"},{"OBJECT_ID":"1989-048A","OBJECT_NAME":"RADUGA 1-1","NORAD_CAT_ID":"20083","OBJECT_TYPE":"PAYLOAD","PERIOD":"1458.804","INCLINATION":"15.397","APOGEE":"36298.410","PERIGEE":"36161.408","ECCENTRICITY":"0.0016077","MEAN_MOTION":"0.98710955","TLE_LINE1":"1 20083U 89048A   16238.79212527 -.00000274 +00000-0 +00000-0 0  9991","TLE_LINE2":"2 20083 015.3970 005.6149 0016077 064.1585 353.6514 00.98710955095910","LAUNCH_DATE":"1989-06-21","LAUNCH_SITE":"TYURATAM MISSILE AND SPACE COMPLEX","OWNER":"COMMONWEALTH OF INDEPENDENT STATES","ORBIT_TYPE":"Unclassified","OPERATIONAL_STATUS":"Nonoperational"},{"OBJECT_ID":"1989-048D","OBJECT_NAME":"SL-12 R/B(2)","NORAD_CAT_ID":"20086","OBJECT_TYPE":"ROCKET BODY","PERIOD":"1471.000","INCLINATION":"15.7059","APOGEE":"36545.186","PERIGEE":"36388.904","ECCENTRICITY":"0.0018238","MEAN_MOTION":"0.97892586","TLE_LINE1":"1 20086U 89048D   16238.24535155 -.00000206  00000-0  00000+0 0  9993","TLE_LINE2":"2 20086  15.7059   6.1671 0018238  58.1901 344.0859  0.97892586 97184","LAUNCH_DATE":"1989-06-21","LAUNCH_SITE":"TYURATAM MISSILE AND SPACE COMPLEX","OWNER":"COMMONWEALTH OF INDEPENDENT STATES","ORBIT_TYPE":"Unclassified","OPERATIONAL_STATUS":"N/A, derelict rocket body"},{"OBJECT_ID":"1981-053MP","OBJECT_NAME":"COSMOS 1275 DEB","NORAD_CAT_ID":"20087","OBJECT_TYPE":"DEBRIS","PERIOD":"104.879","INCLINATION":"82.9898","APOGEE":"1070.755","PERIGEE":"906.835","ECCENTRICITY":"0.0111254","MEAN_MOTION":"13.73007442","TLE_LINE1":"1 20087U 81053MP  16238.48744743 +.00000424 +00000-0 +42358-3 0  9990","TLE_LINE2":"2 20087 082.9898 255.0001 0111254 055.1835 096.9508 13.73007442361993","LAUNCH_DATE":"1981-06-04","LAUNCH_SITE":"PLESETSK MISSILE AND SPACE COMPLEX","OWNER":"COMMONWEALTH OF INDEPENDENT STATES","ORBIT_TYPE":"Low Earth Orbit","OPERATIONAL_STATUS":"N/A, space debris"}]